{"fetched_at":"2026-07-13T07:48:20.256Z","source":"https://celestrak.org/NORAD/elements/gp.php?NAME=HAWK&FORMAT=JSON","constellation":"hawkeye-360","records":[{"OBJECT_NAME":"HAWK-7B","OBJECT_ID":"2023-054R","EPOCH":"2026-07-12T17:23:04.697088","CLASSIFICATION_TYPE":"U","MEAN_MOTION":15.27613837,"ECCENTRICITY":0.0001618,"INCLINATION":97.2699,"RA_OF_ASC_NODE":78.6857,"ARG_OF_PERICENTER":20.7154,"MEAN_ANOMALY":339.4151,"EPHEMERIS_TYPE":0,"NORAD_CAT_ID":56193,"ELEMENT_SET_NO":999,"REV_AT_EPOCH":18092,"BSTAR":0.00011576,"MEAN_MOTION_DOT":0.00003053,"MEAN_MOTION_DDOT":0},{"OBJECT_NAME":"HAWK-7C","OBJECT_ID":"2023-054Y","EPOCH":"2026-07-12T15:48:34.888032","CLASSIFICATION_TYPE":"U","MEAN_MOTION":15.27617444,"ECCENTRICITY":0.0001162,"INCLINATION":97.2676,"RA_OF_ASC_NODE":79.3827,"ARG_OF_PERICENTER":6.201,"MEAN_ANOMALY":353.9244,"EPHEMERIS_TYPE":0,"NORAD_CAT_ID":56200,"ELEMENT_SET_NO":999,"REV_AT_EPOCH":18091,"BSTAR":0.0001206,"MEAN_MOTION_DOT":0.00003184,"MEAN_MOTION_DDOT":0},{"OBJECT_NAME":"HAWK-8A","OBJECT_ID":"2024-066B","EPOCH":"2026-07-12T05:35:38.258016","CLASSIFICATION_TYPE":"U","MEAN_MOTION":14.99281267,"ECCENTRICITY":0.0002796,"INCLINATION":45.5951,"RA_OF_ASC_NODE":147.1342,"ARG_OF_PERICENTER":207.8181,"MEAN_ANOMALY":152.255,"EPHEMERIS_TYPE":0,"NORAD_CAT_ID":59443,"ELEMENT_SET_NO":999,"REV_AT_EPOCH":12359,"BSTAR":0.000069591,"MEAN_MOTION_DOT":0.00000631,"MEAN_MOTION_DDOT":0},{"OBJECT_NAME":"HAWK-8B","OBJECT_ID":"2024-066D","EPOCH":"2026-07-12T19:59:52.238400","CLASSIFICATION_TYPE":"U","MEAN_MOTION":14.99278539,"ECCENTRICITY":0.0002964,"INCLINATION":45.6177,"RA_OF_ASC_NODE":146.0058,"ARG_OF_PERICENTER":213.6584,"MEAN_ANOMALY":146.411,"EPHEMERIS_TYPE":0,"NORAD_CAT_ID":59445,"ELEMENT_SET_NO":999,"REV_AT_EPOCH":12367,"BSTAR":0.000043834,"MEAN_MOTION_DOT":0.00000312,"MEAN_MOTION_DDOT":0},{"OBJECT_NAME":"HAWK-9A","OBJECT_ID":"2024-066E","EPOCH":"2026-07-12T20:32:34.848960","CLASSIFICATION_TYPE":"U","MEAN_MOTION":14.9921151,"ECCENTRICITY":0.0002584,"INCLINATION":45.6092,"RA_OF_ASC_NODE":144.5528,"ARG_OF_PERICENTER":196.2813,"MEAN_ANOMALY":163.7986,"EPHEMERIS_TYPE":0,"NORAD_CAT_ID":59446,"ELEMENT_SET_NO":999,"REV_AT_EPOCH":12368,"BSTAR":0.000079417,"MEAN_MOTION_DOT":0.00000751,"MEAN_MOTION_DDOT":0},{"OBJECT_NAME":"HAWK-9C","OBJECT_ID":"2024-066G","EPOCH":"2026-07-12T06:09:21.702816","CLASSIFICATION_TYPE":"U","MEAN_MOTION":14.99213963,"ECCENTRICITY":0.0002315,"INCLINATION":45.6055,"RA_OF_ASC_NODE":146.7514,"ARG_OF_PERICENTER":175.7965,"MEAN_ANOMALY":184.2936,"EPHEMERIS_TYPE":0,"NORAD_CAT_ID":59448,"ELEMENT_SET_NO":999,"REV_AT_EPOCH":12359,"BSTAR":0.000085077,"MEAN_MOTION_DOT":0.00000821,"MEAN_MOTION_DDOT":0},{"OBJECT_NAME":"HAWK-8C","OBJECT_ID":"2024-066H","EPOCH":"2026-07-12T05:35:33.033408","CLASSIFICATION_TYPE":"U","MEAN_MOTION":14.99284869,"ECCENTRICITY":0.0002588,"INCLINATION":45.607,"RA_OF_ASC_NODE":148.1293,"ARG_OF_PERICENTER":218.4798,"MEAN_ANOMALY":141.5899,"EPHEMERIS_TYPE":0,"NORAD_CAT_ID":59449,"ELEMENT_SET_NO":999,"REV_AT_EPOCH":12358,"BSTAR":0.000070532,"MEAN_MOTION_DOT":0.00000643,"MEAN_MOTION_DDOT":0},{"OBJECT_NAME":"HAWK-9B","OBJECT_ID":"2024-066J","EPOCH":"2026-07-12T06:09:23.927616","CLASSIFICATION_TYPE":"U","MEAN_MOTION":14.9921284,"ECCENTRICITY":0.0002519,"INCLINATION":45.6131,"RA_OF_ASC_NODE":148.5879,"ARG_OF_PERICENTER":169.9156,"MEAN_ANOMALY":190.1777,"EPHEMERIS_TYPE":0,"NORAD_CAT_ID":59450,"ELEMENT_SET_NO":999,"REV_AT_EPOCH":12359,"BSTAR":0.000093308,"MEAN_MOTION_DOT":0.00000923,"MEAN_MOTION_DDOT":0},{"OBJECT_NAME":"HAWK-10A","OBJECT_ID":"2024-149CA","EPOCH":"2026-07-12T18:39:51.431040","CLASSIFICATION_TYPE":"U","MEAN_MOTION":14.96590356,"ECCENTRICITY":0.0003385,"INCLINATION":97.6892,"RA_OF_ASC_NODE":269.2496,"ARG_OF_PERICENTER":14.2777,"MEAN_ANOMALY":345.8539,"EPHEMERIS_TYPE":0,"NORAD_CAT_ID":60540,"ELEMENT_SET_NO":999,"REV_AT_EPOCH":10381,"BSTAR":0.000054061,"MEAN_MOTION_DOT":0.00000558,"MEAN_MOTION_DDOT":0},{"OBJECT_NAME":"HAWK-10B","OBJECT_ID":"2024-149CF","EPOCH":"2026-07-12T18:39:39.435264","CLASSIFICATION_TYPE":"U","MEAN_MOTION":14.96589458,"ECCENTRICITY":0.0005719,"INCLINATION":97.6811,"RA_OF_ASC_NODE":268.5786,"ARG_OF_PERICENTER":23.3723,"MEAN_ANOMALY":336.7757,"EPHEMERIS_TYPE":0,"NORAD_CAT_ID":60545,"ELEMENT_SET_NO":999,"REV_AT_EPOCH":10381,"BSTAR":0.000046372,"MEAN_MOTION_DOT":0.00000471,"MEAN_MOTION_DDOT":0},{"OBJECT_NAME":"HAWK-10C","OBJECT_ID":"2024-149DM","EPOCH":"2026-07-12T18:40:08.202144","CLASSIFICATION_TYPE":"U","MEAN_MOTION":14.96588332,"ECCENTRICITY":0.0002896,"INCLINATION":97.6729,"RA_OF_ASC_NODE":267.8917,"ARG_OF_PERICENTER":1.5345,"MEAN_ANOMALY":358.5885,"EPHEMERIS_TYPE":0,"NORAD_CAT_ID":60575,"ELEMENT_SET_NO":999,"REV_AT_EPOCH":10381,"BSTAR":0.000038119,"MEAN_MOTION_DOT":0.00000377,"MEAN_MOTION_DDOT":0},{"OBJECT_NAME":"HAWK-11B","OBJECT_ID":"2024-247C","EPOCH":"2026-07-12T07:10:18.601824","CLASSIFICATION_TYPE":"U","MEAN_MOTION":15.30640893,"ECCENTRICITY":0.00034127,"INCLINATION":45.0137,"RA_OF_ASC_NODE":152.0611,"ARG_OF_PERICENTER":4.5068,"MEAN_ANOMALY":355.5847,"EPHEMERIS_TYPE":0,"NORAD_CAT_ID":62379,"ELEMENT_SET_NO":999,"REV_AT_EPOCH":8685,"BSTAR":0.00015345312,"MEAN_MOTION_DOT":0.00004329,"MEAN_MOTION_DDOT":0},{"OBJECT_NAME":"HAWK-11C","OBJECT_ID":"2024-247E","EPOCH":"2026-07-11T21:45:46.406304","CLASSIFICATION_TYPE":"U","MEAN_MOTION":15.30634627,"ECCENTRICITY":0.0004418,"INCLINATION":45.0017,"RA_OF_ASC_NODE":153.5448,"ARG_OF_PERICENTER":351.8498,"MEAN_ANOMALY":8.2314,"EPHEMERIS_TYPE":0,"NORAD_CAT_ID":62381,"ELEMENT_SET_NO":999,"REV_AT_EPOCH":8679,"BSTAR":0.0001548,"MEAN_MOTION_DOT":0.00004369,"MEAN_MOTION_DDOT":0},{"OBJECT_NAME":"HAWK-11A","OBJECT_ID":"2024-247F","EPOCH":"2026-07-10T22:16:11.620992","CLASSIFICATION_TYPE":"U","MEAN_MOTION":15.30622161,"ECCENTRICITY":0.00040652,"INCLINATION":44.9912,"RA_OF_ASC_NODE":158.2462,"ARG_OF_PERICENTER":346.2323,"MEAN_ANOMALY":13.845,"EPHEMERIS_TYPE":0,"NORAD_CAT_ID":62382,"ELEMENT_SET_NO":999,"REV_AT_EPOCH":8664,"BSTAR":0.00012010662,"MEAN_MOTION_DOT":0.00003319,"MEAN_MOTION_DDOT":0},{"OBJECT_NAME":"HAWK-12C","OBJECT_ID":"2025-138A","EPOCH":"2026-07-12T13:08:41.627328","CLASSIFICATION_TYPE":"U","MEAN_MOTION":15.18393192,"ECCENTRICITY":0.0015489,"INCLINATION":97.4347,"RA_OF_ASC_NODE":195.5636,"ARG_OF_PERICENTER":59.5306,"MEAN_ANOMALY":300.7455,"EPHEMERIS_TYPE":0,"NORAD_CAT_ID":64621,"ELEMENT_SET_NO":999,"REV_AT_EPOCH":5771,"BSTAR":0.00012604,"MEAN_MOTION_DOT":0.00002531,"MEAN_MOTION_DDOT":0},{"OBJECT_NAME":"HAWK-12B","OBJECT_ID":"2025-138B","EPOCH":"2026-07-12T13:08:56.603904","CLASSIFICATION_TYPE":"U","MEAN_MOTION":15.18392696,"ECCENTRICITY":0.0014354,"INCLINATION":97.4471,"RA_OF_ASC_NODE":196.2529,"ARG_OF_PERICENTER":55.8916,"MEAN_ANOMALY":304.3678,"EPHEMERIS_TYPE":0,"NORAD_CAT_ID":64622,"ELEMENT_SET_NO":999,"REV_AT_EPOCH":5771,"BSTAR":0.00012562,"MEAN_MOTION_DOT":0.00002521,"MEAN_MOTION_DDOT":0}]}
