HAWK-7B                 
1 56193U 23054R   26193.72435992  .00003053  00000+0  11576-3 0  9993
2 56193  97.2699  78.6857 0001618  20.7154 339.4151 15.27613837180923
HAWK-7C                 
1 56200U 23054Y   26193.65873713  .00003184  00000+0  12060-3 0  9995
2 56200  97.2676  79.3827 0001162   6.2010 353.9244 15.27617444180917
HAWK-8A                 
1 59443U 24066B   26193.23308169  .00000631  00000+0  69591-4 0  9999
2 59443  45.5951 147.1342 0002796 207.8181 152.2550 14.99281267123598
HAWK-8B                 
1 59445U 24066D   26193.83324350  .00000312  00000+0  43834-4 0  9995
2 59445  45.6177 146.0058 0002964 213.6584 146.4110 14.99278539123676
HAWK-9A                 
1 59446U 24066E   26193.85595890  .00000751  00000+0  79417-4 0  9990
2 59446  45.6092 144.5528 0002584 196.2813 163.7986 14.99211510123687
HAWK-9C                 
1 59448U 24066G   26193.25650119  .00000821  00000+0  85077-4 0  9999
2 59448  45.6055 146.7514 0002315 175.7965 184.2936 14.99213963123596
HAWK-8C                 
1 59449U 24066H   26193.23302122  .00000643  00000+0  70532-4 0  9998
2 59449  45.6070 148.1293 0002588 218.4798 141.5899 14.99284869123581
HAWK-9B                 
1 59450U 24066J   26193.25652694  .00000923  00000+0  93308-4 0  9991
2 59450  45.6131 148.5879 0002519 169.9156 190.1777 14.99212840123593
HAWK-10A                
1 60540U 24149CA  26193.77767860  .00000558  00000+0  54061-4 0  9991
2 60540  97.6892 269.2496 0003385  14.2777 345.8539 14.96590356103811
HAWK-10B                
1 60545U 24149CF  26193.77753976  .00000471  00000+0  46372-4 0  9999
2 60545  97.6811 268.5786 0005719  23.3723 336.7757 14.96589458103818
HAWK-10C                
1 60575U 24149DM  26193.77787271  .00000377  00000+0  38119-4 0  9992
2 60575  97.6729 267.8917 0002896   1.5345 358.5885 14.96588332103812
HAWK-11B                
1 62379U 24247C   26193.29882641  .00004329  00000+0  15345-3 0  9995
2 62379  45.0137 152.0611 0003412   4.5068 355.5847 15.30640893 86851
HAWK-11C                
1 62381U 24247E   26192.90678711  .00004369  00000+0  15480-3 0  9990
2 62381  45.0017 153.5448 0004418 351.8498   8.2314 15.30634627 86799
HAWK-11A                
1 62382U 24247F   26191.92791228  .00003319  00000+0  12011-3 0  9992
2 62382  44.9912 158.2462 0004065 346.2323  13.8450 15.30622161 86640
HAWK-12C                
1 64621U 25138A   26193.54770402  .00002531  00000+0  12604-3 0  9994
2 64621  97.4347 195.5636 0015489  59.5306 300.7455 15.18393192 57711
HAWK-12B                
1 64622U 25138B   26193.54787736  .00002521  00000+0  12562-3 0  9995
2 64622  97.4471 196.2529 0014354  55.8916 304.3678 15.18392696 57710
